{"fetched_at":"2026-03-29T16:36:15Z","count":15609,"tles":[{"name":"STARLINK-30036","line1":"1 56692U 23067E   26087.61613635  .00000942  00000+0  84793-4 0  9999","line2":"2 56692  43.0043 171.9138 0001740 269.4755  90.5887 15.02534513157373","category":"Starlink"}]}